STARLINK-6104           
1 56127U 23046AM  26183.52214328  .00000253  00000+0  18727-4 0  9991
2 56127  42.9995 221.7707 0001198 274.6316  85.4399 15.27578891179722
STARLINK-32302          
1 61621U 24191A   26183.79739492 -.00000035  00000+0  82632-5 0  9997
2 61621  42.9997 224.1781 0001167 276.6762  83.3957 15.27575385 95898
STARLINK-32365          
1 61625U 24191E   26183.79996691 -.00000098  00000+0  59754-5 0  9995
2 61625  42.9995 224.1965 0001224 273.5753  86.4959 15.27572567 95147
STARLINK-32370          
1 61635U 24191Q   26183.59740992  .00003431  00000+0  13422-3 0  9998
2 61635  42.9930 225.2587 0000612  15.2637 344.8233 15.27558839 95110
STARLINK-32339          
1 61640U 24191V   26183.46275185  .00000335  00000+0  21692-4 0  9996
2 61640  42.9998 225.9641 0001371 271.0824  88.9870 15.27578364 95085
STARLINK-32802          
1 62738U 25014D   26183.52299000  .00015808  00000+0  58263-3 0  9993
2 62738  42.9988 225.5266 0004503 243.8278 116.2111 15.27580263 80822
