{
  "schema": "int-temerity-real-tle-snapshot/v1",
  "source": "celestrak",
  "group": "STARLINK",
  "format": "celestrak-gp-json",
  "source_url": "https://celestrak.org/NORAD/elements/gp.php?NAME=STARLINK&FORMAT=JSON",
  "downloaded_at": "2026-07-03T12:25:16.552Z",
  "generated_at": "2026-07-03T12:25:35.465Z",
  "fingerprint": "eb0f9db4",
  "shell_id": "starlink-real-43deg-490km",
  "catalog_count": 10717,
  "shell_count": 3264,
  "selected_count": 1584,
  "mean_altitude_km": 490.23,
  "mean_inclination_deg": 43.0019,
  "mean_mean_motion_rev_per_day": 15.27566421,
  "layout": {
    "planes": 72,
    "satellites_per_plane": 22,
    "selection_strategy": "largest-shell-raan-clusters-even-slot-sampling",
    "raan_cluster_threshold_deg": 2.5,
    "selected_shell_key": "43.0deg-500km"
  },
  "satellites": [
    {
      "satellite_id": "P41-S09",
      "norad_id": 61625,
      "satellite_name": "STARLINK-32365",
      "cospar_id": "2024-191E",
      "shell_id": "starlink-real-43deg-490km",
      "plane_id": 40,
      "slot_id": 8,
      "epoch": "2026-07-02T19:11:57.141024",
      "inclination": 42.9995,
      "raan": 224.19650000000001,
      "eccentricity": 0.0001224,
      "argument_of_perigee": 273.57529999999997,
      "mean_anomaly": 86.4959,
      "mean_motion": 15.27572567,
      "bstar": 0.0000059754,
      "status": "active",
      "raw_omm": {
        "OBJECT_NAME": "STARLINK-32365",
        "OBJECT_ID": "2024-191E",
        "EPOCH": "2026-07-02T19:11:57.141024",
        "MEAN_MOTION": 15.27572567,
        "ECCENTRICITY": 0.0001224,
        "INCLINATION": 42.9995,
        "RA_OF_ASC_NODE": 224.1965,
        "ARG_OF_PERICENTER": 273.5753,
        "MEAN_ANOMALY": 86.4959,
        "EPHEMERIS_TYPE": 0,
        "CLASSIFICATION_TYPE": "U",
        "NORAD_CAT_ID": 61625,
        "ELEMENT_SET_NO": 999,
        "REV_AT_EPOCH": 9514,
        "BSTAR": 0.0000059754,
        "MEAN_MOTION_DOT": -9.8e-7,
        "MEAN_MOTION_DDOT": 0
      },
      "source": "celestrak",
      "source_url": "https://celestrak.org/NORAD/elements/gp.php?NAME=STARLINK&FORMAT=JSON",
      "catalog_fingerprint": "eb0f9db4"
    },
    {
      "satellite_id": "P41-S10",
      "norad_id": 61621,
      "satellite_name": "STARLINK-32302",
      "cospar_id": "2024-191A",
      "shell_id": "starlink-real-43deg-490km",
      "plane_id": 40,
      "slot_id": 9,
      "epoch": "2026-07-02T19:08:14.921088",
      "inclination": 42.9997,
      "raan": 224.17809999999997,
      "eccentricity": 0.0001167,
      "argument_of_perigee": 276.6762,
      "mean_anomaly": 83.39570000000003,
      "mean_motion": 15.27575385,
      "bstar": 0.0000082632,
      "status": "active",
      "raw_omm": {
        "OBJECT_NAME": "STARLINK-32302",
        "OBJECT_ID": "2024-191A",
        "EPOCH": "2026-07-02T19:08:14.921088",
        "MEAN_MOTION": 15.27575385,
        "ECCENTRICITY": 0.0001167,
        "INCLINATION": 42.9997,
        "RA_OF_ASC_NODE": 224.1781,
        "ARG_OF_PERICENTER": 276.6762,
        "MEAN_ANOMALY": 83.3957,
        "EPHEMERIS_TYPE": 0,
        "CLASSIFICATION_TYPE": "U",
        "NORAD_CAT_ID": 61621,
        "ELEMENT_SET_NO": 999,
        "REV_AT_EPOCH": 9589,
        "BSTAR": 0.0000082632,
        "MEAN_MOTION_DOT": -3.5e-7,
        "MEAN_MOTION_DDOT": 0
      },
      "source": "celestrak",
      "source_url": "https://celestrak.org/NORAD/elements/gp.php?NAME=STARLINK&FORMAT=JSON",
      "catalog_fingerprint": "eb0f9db4"
    },
    {
      "satellite_id": "P41-S11",
      "norad_id": 61635,
      "satellite_name": "STARLINK-32370",
      "cospar_id": "2024-191Q",
      "shell_id": "starlink-real-43deg-490km",
      "plane_id": 40,
      "slot_id": 10,
      "epoch": "2026-07-02T14:20:16.217088",
      "inclination": 42.993,
      "raan": 225.25869999999998,
      "eccentricity": 0.0000612,
      "argument_of_perigee": 15.263699999999972,
      "mean_anomaly": 344.8233,
      "mean_motion": 15.27558839,
      "bstar": 0.00013422,
      "status": "active",
      "raw_omm": {
        "OBJECT_NAME": "STARLINK-32370",
        "OBJECT_ID": "2024-191Q",
        "EPOCH": "2026-07-02T14:20:16.217088",
        "MEAN_MOTION": 15.27558839,
        "ECCENTRICITY": 0.0000612,
        "INCLINATION": 42.993,
        "RA_OF_ASC_NODE": 225.2587,
        "ARG_OF_PERICENTER": 15.2637,
        "MEAN_ANOMALY": 344.8233,
        "EPHEMERIS_TYPE": 0,
        "CLASSIFICATION_TYPE": "U",
        "NORAD_CAT_ID": 61635,
        "ELEMENT_SET_NO": 999,
        "REV_AT_EPOCH": 9511,
        "BSTAR": 0.00013422,
        "MEAN_MOTION_DOT": 0.00003431,
        "MEAN_MOTION_DDOT": 0
      },
      "source": "celestrak",
      "source_url": "https://celestrak.org/NORAD/elements/gp.php?NAME=STARLINK&FORMAT=JSON",
      "catalog_fingerprint": "eb0f9db4"
    },
    {
      "satellite_id": "P41-S12",
      "norad_id": 61640,
      "satellite_name": "STARLINK-32339",
      "cospar_id": "2024-191V",
      "shell_id": "starlink-real-43deg-490km",
      "plane_id": 40,
      "slot_id": 11,
      "epoch": "2026-07-02T11:06:21.759840",
      "inclination": 42.9998,
      "raan": 225.96410000000003,
      "eccentricity": 0.0001371,
      "argument_of_perigee": 271.0824,
      "mean_anomaly": 88.98699999999997,
      "mean_motion": 15.27578364,
      "bstar": 0.000021692,
      "status": "active",
      "raw_omm": {
        "OBJECT_NAME": "STARLINK-32339",
        "OBJECT_ID": "2024-191V",
        "EPOCH": "2026-07-02T11:06:21.759840",
        "MEAN_MOTION": 15.27578364,
        "ECCENTRICITY": 0.0001371,
        "INCLINATION": 42.9998,
        "RA_OF_ASC_NODE": 225.9641,
        "ARG_OF_PERICENTER": 271.0824,
        "MEAN_ANOMALY": 88.987,
        "EPHEMERIS_TYPE": 0,
        "CLASSIFICATION_TYPE": "U",
        "NORAD_CAT_ID": 61640,
        "ELEMENT_SET_NO": 999,
        "REV_AT_EPOCH": 9508,
        "BSTAR": 0.000021692,
        "MEAN_MOTION_DOT": 0.00000335,
        "MEAN_MOTION_DDOT": 0
      },
      "source": "celestrak",
      "source_url": "https://celestrak.org/NORAD/elements/gp.php?NAME=STARLINK&FORMAT=JSON",
      "catalog_fingerprint": "eb0f9db4"
    },
    {
      "satellite_id": "P41-S13",
      "norad_id": 62738,
      "satellite_name": "STARLINK-32802",
      "cospar_id": "2025-014D",
      "shell_id": "starlink-real-43deg-490km",
      "plane_id": 40,
      "slot_id": 12,
      "epoch": "2026-07-02T12:33:06.336000",
      "inclination": 42.9988,
      "raan": 225.52660000000003,
      "eccentricity": 0.0004503,
      "argument_of_perigee": 243.82780000000002,
      "mean_anomaly": 116.21109999999999,
      "mean_motion": 15.27580263,
      "bstar": 0.00058263,
      "status": "active",
      "raw_omm": {
        "OBJECT_NAME": "STARLINK-32802",
        "OBJECT_ID": "2025-014D",
        "EPOCH": "2026-07-02T12:33:06.336000",
        "MEAN_MOTION": 15.27580263,
        "ECCENTRICITY": 0.0004503,
        "INCLINATION": 42.9988,
        "RA_OF_ASC_NODE": 225.5266,
        "ARG_OF_PERICENTER": 243.8278,
        "MEAN_ANOMALY": 116.2111,
        "EPHEMERIS_TYPE": 0,
        "CLASSIFICATION_TYPE": "U",
        "NORAD_CAT_ID": 62738,
        "ELEMENT_SET_NO": 999,
        "REV_AT_EPOCH": 8082,
        "BSTAR": 0.00058263,
        "MEAN_MOTION_DOT": 0.00015808,
        "MEAN_MOTION_DDOT": 0
      },
      "source": "celestrak",
      "source_url": "https://celestrak.org/NORAD/elements/gp.php?NAME=STARLINK&FORMAT=JSON",
      "catalog_fingerprint": "eb0f9db4"
    },
    {
      "satellite_id": "P41-S14",
      "norad_id": 56127,
      "satellite_name": "STARLINK-6104",
      "cospar_id": "2023-046AM",
      "shell_id": "starlink-real-43deg-490km",
      "plane_id": 40,
      "slot_id": 13,
      "epoch": "2026-07-02T12:31:53.179392",
      "inclination": 42.9995,
      "raan": 221.77070000000003,
      "eccentricity": 0.0001198,
      "argument_of_perigee": 274.63159999999993,
      "mean_anomaly": 85.43989999999997,
      "mean_motion": 15.27578891,
      "bstar": 0.000018727,
      "status": "active",
      "raw_omm": {
        "OBJECT_NAME": "STARLINK-6104",
        "OBJECT_ID": "2023-046AM",
        "EPOCH": "2026-07-02T12:31:53.179392",
        "MEAN_MOTION": 15.27578891,
        "ECCENTRICITY": 0.0001198,
        "INCLINATION": 42.9995,
        "RA_OF_ASC_NODE": 221.7707,
        "ARG_OF_PERICENTER": 274.6316,
        "MEAN_ANOMALY": 85.4399,
        "EPHEMERIS_TYPE": 0,
        "CLASSIFICATION_TYPE": "U",
        "NORAD_CAT_ID": 56127,
        "ELEMENT_SET_NO": 999,
        "REV_AT_EPOCH": 17972,
        "BSTAR": 0.000018727,
        "MEAN_MOTION_DOT": 0.00000253,
        "MEAN_MOTION_DDOT": 0
      },
      "source": "celestrak",
      "source_url": "https://celestrak.org/NORAD/elements/gp.php?NAME=STARLINK&FORMAT=JSON",
      "catalog_fingerprint": "eb0f9db4"
    }
  ]
}